[{"OBJECT_NAME":"SL-14 R/B","OBJECT_ID":"1986-006B","EPOCH":"2026-03-03T01:25:51.947328","MEAN_MOTION":14.86804678,"ECCENTRICITY":0.0075211,"INCLINATION":82.5235,"RA_OF_ASC_NODE":265.9789,"ARG_OF_PERICENTER":295.2248,"MEAN_ANOMALY":64.1185,"EPHEMERIS_TYPE":0,"CLASSIFICATION_TYPE":"U","NORAD_CAT_ID":16496,"ELEMENT_SET_NO":999,"REV_AT_EPOCH":14822,"BSTAR":7.8534e-5,"MEAN_MOTION_DOT":7.62e-6,"MEAN_MOTION_DDOT":0},{"OBJECT_NAME":"COSMOS 1743","OBJECT_ID":"1986-034A","EPOCH":"2026-03-03T11:27:28.661184","MEAN_MOTION":15.58030499,"ECCENTRICITY":0.0002254,"INCLINATION":82.5291,"RA_OF_ASC_NODE":80.3487,"ARG_OF_PERICENTER":335.7563,"MEAN_ANOMALY":24.3586,"EPHEMERIS_TYPE":0,"CLASSIFICATION_TYPE":"U","NORAD_CAT_ID":16719,"ELEMENT_SET_NO":999,"REV_AT_EPOCH":17928,"BSTAR":0.00047113,"MEAN_MOTION_DOT":0.00035452,"MEAN_MOTION_DDOT":0},{"OBJECT_NAME":"SL-14 R/B","OBJECT_ID":"1986-046B","EPOCH":"2026-03-03T11:25:21.183168","MEAN_MOTION":14.85583205,"ECCENTRICITY":0.0021653,"INCLINATION":82.4782,"RA_OF_ASC_NODE":86.0548,"ARG_OF_PERICENTER":247.107,"MEAN_ANOMALY":112.7861,"EPHEMERIS_TYPE":0,"CLASSIFICATION_TYPE":"U","NORAD_CAT_ID":16792,"ELEMENT_SET_NO":999,"REV_AT_EPOCH":12548,"BSTAR":6.6648e-5,"MEAN_MOTION_DOT":6.02e-6,"MEAN_MOTION_DDOT":0},{"OBJECT_NAME":"SL-14 R/B","OBJECT_ID":"1986-055B","EPOCH":"2026-03-03T06:29:37.023360","MEAN_MOTION":14.85635749,"ECCENTRICITY":0.0018742,"INCLINATION":82.5212,"RA_OF_ASC_NODE":132.7072,"ARG_OF_PERICENTER":358.2397,"MEAN_ANOMALY":67.812,"EPHEMERIS_TYPE":0,"CLASSIFICATION_TYPE":"U","NORAD_CAT_ID":16882,"ELEMENT_SET_NO":999,"REV_AT_EPOCH":11841,"BSTAR":6.5311e-5,"MEAN_MOTION_DOT":5.91e-6,"MEAN_MOTION_DDOT":0},{"OBJECT_NAME":"AJISAI (EGS)","OBJECT_ID":"1986-061A","EPOCH":"2026-03-03T10:54:54.603360","MEAN_MOTION":12.44515534,"ECCENTRICITY":0.001125,"INCLINATION":50.0081,"RA_OF_ASC_NODE":112.5206,"ARG_OF_PERICENTER":270.9667,"MEAN_ANOMALY":172.9183,"EPHEMERIS_TYPE":0,"CLASSIFICATION_TYPE":"U","NORAD_CAT_ID":16908,"ELEMENT_SET_NO":999,"REV_AT_EPOCH":46722,"BSTAR":0.00016548,"MEAN_MOTION_DOT":-7.4e-7,"MEAN_MOTION_DDOT":0},{"OBJECT_NAME":"COSMOS 1812","OBJECT_ID":"1987-003A","EPOCH":"2026-03-03T14:49:59.253024","MEAN_MOTION":16.24359428,"ECCENTRICITY":0.0007895,"INCLINATION":82.4711,"RA_OF_ASC_NODE":202.5548,"ARG_OF_PERICENTER":287.2968,"MEAN_ANOMALY":72.7458,"EPHEMERIS_TYPE":0,"CLASSIFICATION_TYPE":"U","NORAD_CAT_ID":17295,"ELEMENT_SET_NO":999,"REV_AT_EPOCH":14350,"BSTAR":0.00077782,"MEAN_MOTION_DOT":0.0207464,"MEAN_MOTION_DDOT":-1.2187e-6},{"OBJECT_NAME":"SL-14 R/B","OBJECT_ID":"1987-024B","EPOCH":"2026-03-03T04:11:56.176800","MEAN_MOTION":14.86124633,"ECCENTRICITY":0.0016688,"INCLINATION":82.5253,"RA_OF_ASC_NODE":98.8885,"ARG_OF_PERICENTER":283.4998,"MEAN_ANOMALY":76.4359,"EPHEMERIS_TYPE":0,"CLASSIFICATION_TYPE":"U","NORAD_CAT_ID":17567,"ELEMENT_SET_NO":999,"REV_AT_EPOCH":8716,"BSTAR":5.8038e-5,"MEAN_MOTION_DOT":5.34e-6,"MEAN_MOTION_DDOT":0},{"OBJECT_NAME":"COSMOS 1833","OBJECT_ID":"1987-027A","EPOCH":"2026-03-03T04:56:43.095840","MEAN_MOTION":14.13056167,"ECCENTRICITY":0.0024558,"INCLINATION":70.9233,"RA_OF_ASC_NODE":339.6445,"ARG_OF_PERICENTER":223.5148,"MEAN_ANOMALY":136.4036,"EPHEMERIS_TYPE":0,"CLASSIFICATION_TYPE":"U","NORAD_CAT_ID":17589,"ELEMENT_SET_NO":999,"REV_AT_EPOCH":940,"BSTAR":-4.3123e-5,"MEAN_MOTION_DOT":-1.29e-6,"MEAN_MOTION_DDOT":0},{"OBJECT_NAME":"SL-16 R/B","OBJECT_ID":"1987-027B","EPOCH":"2026-03-03T01:22:34.412736","MEAN_MOTION":14.17166526,"ECCENTRICITY":0.0003734,"INCLINATION":71.002,"RA_OF_ASC_NODE":290.4721,"ARG_OF_PERICENTER":156.878,"MEAN_ANOMALY":203.2513,"EPHEMERIS_TYPE":0,"CLASSIFICATION_TYPE":"U","NORAD_CAT_ID":17590,"ELEMENT_SET_NO":999,"REV_AT_EPOCH":1440,"BSTAR":-6.789e-5,"MEAN_MOTION_DOT":-1.85e-6,"MEAN_MOTION_DDOT":0},{"OBJECT_NAME":"SL-14 R/B","OBJECT_ID":"1987-038B","EPOCH":"2026-03-03T03:59:52.122336","MEAN_MOTION":14.8536234,"ECCENTRICITY":0.001911,"INCLINATION":82.5014,"RA_OF_ASC_NODE":302.9529,"ARG_OF_PERICENTER":181.7294,"MEAN_ANOMALY":178.386,"EPHEMERIS_TYPE":0,"CLASSIFICATION_TYPE":"U","NORAD_CAT_ID":17912,"ELEMENT_SET_NO":999,"REV_AT_EPOCH":7826,"BSTAR":5.6822e-5,"MEAN_MOTION_DOT":5.14e-6,"MEAN_MOTION_DDOT":0},{"OBJECT_NAME":"COSMOS 1844","OBJECT_ID":"1987-041A","EPOCH":"2026-03-03T09:20:56.090976","MEAN_MOTION":14.14553224,"ECCENTRICITY":0.0029659,"INCLINATION":70.8994,"RA_OF_ASC_NODE":47.4636,"ARG_OF_PERICENTER":27.3569,"MEAN_ANOMALY":332.9107,"EPHEMERIS_TYPE":0,"CLASSIFICATION_TYPE":"U","NORAD_CAT_ID":17973,"ELEMENT_SET_NO":999,"REV_AT_EPOCH":269,"BSTAR":-1.002e-5,"MEAN_MOTION_DOT":-6.8e-7,"MEAN_MOTION_DDOT":0},{"OBJECT_NAME":"SL-14 R/B","OBJECT_ID":"1987-055B","EPOCH":"2026-03-03T06:42:17.986176","MEAN_MOTION":14.85620176,"ECCENTRICITY":0.0021671,"INCLINATION":82.5029,"RA_OF_ASC_NODE":355.071,"ARG_OF_PERICENTER":38.2733,"MEAN_ANOMALY":322.0016,"EPHEMERIS_TYPE":0,"CLASSIFICATION_TYPE":"U","NORAD_CAT_ID":18153,"ELEMENT_SET_NO":999,"REV_AT_EPOCH":6898,"BSTAR":8.4958e-5,"MEAN_MOTION_DOT":7.63e-6,"MEAN_MOTION_DDOT":0},{"OBJECT_NAME":"COSMOS 1867","OBJECT_ID":"1987-060A","EPOCH":"2026-03-03T03:41:22.184736","MEAN_MOTION":14.3150179,"ECCENTRICITY":0.0014388,"INCLINATION":65.012,"RA_OF_ASC_NODE":325.0088,"ARG_OF_PERICENTER":278.2415,"MEAN_ANOMALY":81.7037,"EPHEMERIS_TYPE":0,"CLASSIFICATION_TYPE":"U","NORAD_CAT_ID":18187,"ELEMENT_SET_NO":999,"REV_AT_EPOCH":1900,"BSTAR":4.014e-5,"MEAN_MOTION_DOT":7.0e-8,"MEAN_MOTION_DDOT":0},{"OBJECT_NAME":"SL-14 R/B","OBJECT_ID":"1988-001B","EPOCH":"2026-03-03T11:25:51.904416","MEAN_MOTION":14.8551863,"ECCENTRICITY":0.0016605,"INCLINATION":82.5142,"RA_OF_ASC_NODE":201.2028,"ARG_OF_PERICENTER":257.9558,"MEAN_ANOMALY":101.9797,"EPHEMERIS_TYPE":0,"CLASSIFICATION_TYPE":"U","NORAD_CAT_ID":18749,"ELEMENT_SET_NO":999,"REV_AT_EPOCH":4110,"BSTAR":8.5252e-5,"MEAN_MOTION_DOT":7.61e-6,"MEAN_MOTION_DDOT":0},{"OBJECT_NAME":"COSMOS 1933","OBJECT_ID":"1988-020A","EPOCH":"2026-03-03T11:04:56.496000","MEAN_MOTION":15.17915908,"ECCENTRICITY":0.0003378,"INCLINATION":82.5095,"RA_OF_ASC_NODE":257.0758,"ARG_OF_PERICENTER":206.0516,"MEAN_ANOMALY":154.0548,"EPHEMERIS_TYPE":0,"CLASSIFICATION_TYPE":"U","NORAD_CAT_ID":18958,"ELEMENT_SET_NO":999,"REV_AT_EPOCH":4928,"BSTAR":0.00024633,"MEAN_MOTION_DOT":5.025e-5,"MEAN_MOTION_DDOT":0},{"OBJECT_NAME":"SL-3 R/B","OBJECT_ID":"1988-032B","EPOCH":"2026-03-03T11:28:20.159040","MEAN_MOTION":15.19818767,"ECCENTRICITY":0.0024114,"INCLINATION":97.5179,"RA_OF_ASC_NODE":45.7512,"ARG_OF_PERICENTER":254.8458,"MEAN_ANOMALY":105.011,"EPHEMERIS_TYPE":0,"CLASSIFICATION_TYPE":"U","NORAD_CAT_ID":19046,"ELEMENT_SET_NO":999,"REV_AT_EPOCH":5116,"BSTAR":0.00032059,"MEAN_MOTION_DOT":6.851e-5,"MEAN_MOTION_DDOT":0},{"OBJECT_NAME":"SL-16 R/B","OBJECT_ID":"1988-039B","EPOCH":"2026-03-03T11:56:44.899296","MEAN_MOTION":14.19615601,"ECCENTRICITY":0.0022412,"INCLINATION":71.013,"RA_OF_ASC_NODE":81.6418,"ARG_OF_PERICENTER":343.4793,"MEAN_ANOMALY":16.5599,"EPHEMERIS_TYPE":0,"CLASSIFICATION_TYPE":"U","NORAD_CAT_ID":19120,"ELEMENT_SET_NO":999,"REV_AT_EPOCH":95750,"BSTAR":6.098e-5,"MEAN_MOTION_DOT":8.1e-7,"MEAN_MOTION_DDOT":0}]
